{"type": "FeatureCollection", "features": [ {"type": "Feature", "properties": {"norad_id": 34910, "name": "COSMOS 2251 DEB", "group": "cosmos-2251-debris", "lat": -7.125484462479658, "lon": -85.71483650725746, "alt_km": 795.5821401681005, "timestamp": "2025-12-18T13:51:50.081467+00:00", "meta": {"OBJECT_NAME": "COSMOS 2251 DEB", "OBJECT_ID": "1993-036ADF", "EPOCH": "2025-12-16T00:48:30.580128", "MEAN_MOTION": 13.37690746, "ECCENTRICITY": 0.04679747, "INCLINATION": 73.876, "RA_OF_ASC_NODE": 96.2259, "ARG_OF_PERICENTER": 214.6056, "MEAN_ANOMALY": 328.1497, "EPHEMERIS_TYPE": 0, "CLASSIFICATION_TYPE": "U", "NORAD_CAT_ID": 34910, "ELEMENT_SET_NO": 999, "REV_AT_EPOCH": 81568, "BSTAR": 0.0011529423, "MEAN_MOTION_DOT": 1.118e-05, "MEAN_MOTION_DDOT": 0}, "tle": {"line1": "1 34910U 93036ADF 25350.03368727  .00001118  00000+0  11529-2 0  9999", "line2": "2 34910  73.8760  96.2259 0467974 214.6056 328.1497 13.37690746815682"}}, "geometry": {"type": "Point", "coordinates": [-85.71483650725746, -7.125484462479658]}}, {"type": "Feature", "properties": {"norad_id": 34911, "name": "COSMOS 2251 DEB", "group": "cosmos-2251-debris", "lat": 2.9050229226149784, "lon": -125.54923168522583, "alt_km": 638.387572100376, "timestamp": "2025-12-18T13:51:50.081478+00:00", "meta": {"OBJECT_NAME": "COSMOS 2251 DEB", "OBJECT_ID": "1993-036ADG", "EPOCH": "2025-12-18T03:01:44.907744", "MEAN_MOTION": 14.59380767, "ECCENTRICITY": 0.00838464, "INCLINATION": 74.0407, "RA_OF_ASC_NODE": 234.4788, "ARG_OF_PERICENTER": 358.5052, "MEAN_ANOMALY": 153.7057, "EPHEMERIS_TYPE": 0, "CLASSIFICATION_TYPE": "U", "NORAD_CAT_ID": 34911, "ELEMENT_SET_NO": 999, "REV_AT_EPOCH": 88665, "BSTAR": 0.00011478995, "MEAN_MOTION_DOT": 5.38e-06, "MEAN_MOTION_DDOT": 0}, "tle": {"line1": "1 34911U 93036ADG 25352.12621421  .00000538  00000+0  11479-3 0  9995", "line2": "2 34911  74.0407 234.4788 0083846 358.5052 153.7057 14.59380767886656"}}, "geometry": {"type": "Point", "coordinates": [-125.54923168522583, 2.9050229226149784]}}, {"type": "Feature", "properties": {"norad_id": 34913, "name": "COSMOS 2251 DEB", "group": "cosmos-2251-debris", "lat": -25.58216732851979, "lon": 99.68051782444236, "alt_km": 796.1401306053021, "timestamp": "2025-12-18T13:51:50.081488+00:00", "meta": {"OBJECT_NAME": "COSMOS 2251 DEB", "OBJECT_ID": "1993-036ADJ", "EPOCH": "2025-12-17T12:37:27.083424", "MEAN_MOTION": 14.34638966, "ECCENTRICITY": 0.00205447, "INCLINATION": 74.0284, "RA_OF_ASC_NODE": 273.7265, "ARG_OF_PERICENTER": 22.3258, "MEAN_ANOMALY": 154.9799, "EPHEMERIS_TYPE": 0, "CLASSIFICATION_TYPE": "U", "NORAD_CAT_ID": 34913, "ELEMENT_SET_NO": 999, "REV_AT_EPOCH": 65256, "BSTAR": 4.1360926e-05, "MEAN_MOTION_DOT": 9.1e-07, "MEAN_MOTION_DDOT": 0}, "tle": {"line1": "1 34913U 93036ADJ 25351.52600791  .00000091  00000+0  41361-4 0  9995", "line2": "2 34913  74.0284 273.7265 0020544  22.3258 154.9799 14.34638966652564"}}, "geometry": {"type": "Point", "coordinates": [99.68051782444236, -25.58216732851979]}}, {"type": "Feature", "properties": {"norad_id": 34918, "name": "COSMOS 2251 DEB", "group": "cosmos-2251-debris", "lat": -11.123576310557011, "lon": 125.70749518383322, "alt_km": 687.7821074830326, "timestamp": "2025-12-18T13:51:50.081498+00:00", "meta": {"OBJECT_NAME": "COSMOS 2251 DEB", "OBJECT_ID": "1993-036ADP", "EPOCH": "2025-12-18T06:44:15.082368", "MEAN_MOTION": 14.61294427, "ECCENTRICITY": 0.00332984, "INCLINATION": 74.0711, "RA_OF_ASC_NODE": 303.0548, "ARG_OF_PERICENTER": 269.5934, "MEAN_ANOMALY": 160.816, "EPHEMERIS_TYPE": 0, "CLASSIFICATION_TYPE": "U", "NORAD_CAT_ID": 34918, "ELEMENT_SET_NO": 999, "REV_AT_EPOCH": 65417, "BSTAR": 0.0015824727, "MEAN_MOTION_DOT": 7.853e-05, "MEAN_MOTION_DDOT": 0}, "tle": {"line1": "1 34918U 93036ADP 25352.28073012  .00007853  00000+0  15825-2 0  9991", "line2": "2 34918  74.0711 303.0548 0033298 269.5934 160.8160 14.61294427654178"}}, "geometry": {"type": "Point", "coordinates": [125.70749518383322, -11.123576310557011]}}, {"type": "Feature", "properties": {"norad_id": 34924, "name": "COSMOS 2251 DEB", "group": "cosmos-2251-debris", "lat": 16.32025737372305, "lon": -106.49558129470064, "alt_km": 655.062642586292, "timestamp": "2025-12-18T13:51:50.081508+00:00", "meta": {"OBJECT_NAME": "COSMOS 2251 DEB", "OBJECT_ID": "1993-036ADV", "EPOCH": "2025-12-17T16:25:44.796864", "MEAN_MOTION": 14.60076982, "ECCENTRICITY": 0.00539411, "INCLINATION": 74.0412, "RA_OF_ASC_NODE": 80.014, "ARG_OF_PERICENTER": 163.4775, "MEAN_ANOMALY": 346.857, "EPHEMERIS_TYPE": 0, "CLASSIFICATION_TYPE": "U", "NORAD_CAT_ID": 34924, "ELEMENT_SET_NO": 999, "REV_AT_EPOCH": 87795, "BSTAR": 0.00070261793, "MEAN_MOTION_DOT": 3.418e-05, "MEAN_MOTION_DDOT": 0}, "tle": {"line1": "1 34924U 93036ADV 25351.68454626  .00003418  00000+0  70262-3 0  9995", "line2": "2 34924  74.0412  80.0140 0053941 163.4775 346.8570 14.60076982877952"}}, "geometry": {"type": "Point", "coordinates": [-106.49558129470064, 16.32025737372305]}}, {"type": "Feature", "properties": {"norad_id": 34944, "name": "COSMOS 2251 DEB", "group": "cosmos-2251-debris", "lat": 22.598927065049953, "lon": -131.51906113843415, "alt_km": 728.874311124916, "timestamp": "2025-12-18T13:51:50.081518+00:00", "meta": {"OBJECT_NAME": "COSMOS 2251 DEB", "OBJECT_ID": "1993-036ADX", "EPOCH": "2025-12-17T02:06:11.847168", "MEAN_MOTION": 14.14195665, "ECCENTRICITY": 0.02198727, "INCLINATION": 73.7495, "RA_OF_ASC_NODE": 224.195, "ARG_OF_PERICENTER": 70.8954, "MEAN_ANOMALY": 291.5851, "EPHEMERIS_TYPE": 0, "CLASSIFICATION_TYPE": "U", "NORAD_CAT_ID": 34944, "ELEMENT_SET_NO": 999, "REV_AT_EPOCH": 64144, "BSTAR": 0.00030334686, "MEAN_MOTION_DOT": 7.03e-06, "MEAN_MOTION_DDOT": 0}, "tle": {"line1": "1 34944U 93036ADX 25351.08763712  .00000703  00000+0  30335-3 0  9991", "line2": "2 34944  73.7495 224.1950 0219872  70.8954 291.5851 14.14195665641448"}}, "geometry": {"type": "Point", "coordinates": [-131.51906113843415, 22.598927065049953]}}, {"type": "Feature", "properties": {"norad_id": 34946, "name": "COSMOS 2251 DEB", "group": "cosmos-2251-debris", "lat": 45.49524157952762, "lon": -12.124308733109672, "alt_km": 664.247071727832, "timestamp": "2025-12-18T13:51:50.081529+00:00", "meta": {"OBJECT_NAME": "COSMOS 2251 DEB", "OBJECT_ID": "1993-036ADZ", "EPOCH": "2025-12-17T16:17:48.615360", "MEAN_MOTION": 14.62022372, "ECCENTRICITY": 0.00485788, "INCLINATION": 74.0231, "RA_OF_ASC_NODE": 332.6492, "ARG_OF_PERICENTER": 108.2912, "MEAN_ANOMALY": 252.3549, "EPHEMERIS_TYPE": 0, "CLASSIFICATION_TYPE": "U", "NORAD_CAT_ID": 34946, "ELEMENT_SET_NO": 999, "REV_AT_EPOCH": 88281, "BSTAR": 0.00043805305, "MEAN_MOTION_DOT": 2.204e-05, "MEAN_MOTION_DDOT": 0}, "tle": {"line1": "1 34946U 93036ADZ 25351.67903490  .00002204  00000+0  43805-3 0  9991", "line2": "2 34946  74.0231 332.6492 0048578 108.2912 252.3549 14.62022372882815"}}, "geometry": {"type": "Point", "coordinates": [-12.124308733109672, 45.49524157952762]}}, {"type": "Feature", "properties": {"norad_id": 34949, "name": "COSMOS 2251 DEB", "group": "cosmos-2251-debris", "lat": -17.096475876725677, "lon": -76.68883132814821, "alt_km": 612.3754689528114, "timestamp": "2025-12-18T13:51:50.081539+00:00", "meta": {"OBJECT_NAME": "COSMOS 2251 DEB", "OBJECT_ID": "1993-036AEC", "EPOCH": "2025-12-16T00:41:42.487008", "MEAN_MOTION": 14.74023339, "ECCENTRICITY": 0.00802648, "INCLINATION": 74.0185, "RA_OF_ASC_NODE": 103.231, "ARG_OF_PERICENTER": 247.8557, "MEAN_ANOMALY": 111.4083, "EPHEMERIS_TYPE": 0, "CLASSIFICATION_TYPE": "U", "NORAD_CAT_ID": 34949, "ELEMENT_SET_NO": 999, "REV_AT_EPOCH": 88410, "BSTAR": 0.00040106171, "MEAN_MOTION_DOT": 2.742e-05, "MEAN_MOTION_DDOT": 0}, "tle": {"line1": "1 34949U 93036AEC 25350.02896397  .00002742  00000+0  40106-3 0  9997", "line2": "2 34949  74.0185 103.2310 0080264 247.8557 111.4083 14.74023339884109"}}, "geometry": {"type": "Point", "coordinates": [-76.68883132814821, -17.096475876725677]}}, {"type": "Feature", "properties": {"norad_id": 34953, "name": "COSMOS 2251 DEB", "group": "cosmos-2251-debris", "lat": 63.38027277282302, "lon": 50.908360534241915, "alt_km": 638.1386250648766, "timestamp": "2025-12-18T13:51:50.081550+00:00", "meta": {"OBJECT_NAME": "COSMOS 2251 DEB", "OBJECT_ID": "1993-036AEG", "EPOCH": "2025-12-17T08:12:02.475648", "MEAN_MOTION": 14.68997686, "ECCENTRICITY": 0.00582899, "INCLINATION": 74.0933, "RA_OF_ASC_NODE": 18.6118, "ARG_OF_PERICENTER": 9.3224, "MEAN_ANOMALY": 4.9291, "EPHEMERIS_TYPE": 0, "CLASSIFICATION_TYPE": "U", "NORAD_CAT_ID": 34953, "ELEMENT_SET_NO": 999, "REV_AT_EPOCH": 88196, "BSTAR": 0.00057825392, "MEAN_MOTION_DOT": 3.448e-05, "MEAN_MOTION_DDOT": 0}, "tle": {"line1": "1 34953U 93036AEG 25351.34169532  .00003448  00000+0  57825-3 0  9992", "line2": "2 34953  74.0933  18.6118 0058289   9.3224   4.9291 14.68997686881960"}}, "geometry": {"type": "Point", "coordinates": [50.908360534241915, 63.38027277282302]}}, {"type": "Feature", "properties": {"norad_id": 34955, "name": "COSMOS 2251 DEB", "group": "cosmos-2251-debris", "lat": 33.70139901556364, "lon": 43.62506637541414, "alt_km": 612.6252429637907, "timestamp": "2025-12-18T13:51:50.081559+00:00", "meta": {"OBJECT_NAME": "COSMOS 2251 DEB", "OBJECT_ID": "1993-036AEJ", "EPOCH": "2025-12-17T22:49:00.130944", "MEAN_MOTION": 15.00628919, "ECCENTRICITY": 0.00778127, "INCLINATION": 74.0384, "RA_OF_ASC_NODE": 235.9048, "ARG_OF_PERICENTER": 304.378, "MEAN_ANOMALY": 55.0064, "EPHEMERIS_TYPE": 0, "CLASSIFICATION_TYPE": "U", "NORAD_CAT_ID": 34955, "ELEMENT_SET_NO": 999, "REV_AT_EPOCH": 90112, "BSTAR": 0.00052844899, "MEAN_MOTION_DOT": 7.088e-05, "MEAN_MOTION_DDOT": 0}, "tle": {"line1": "1 34955U 93036AEJ 25351.95069596  .00007088  00000+0  52845-3 0  9991", "line2": "2 34955  74.0384 235.9048 0077812 304.3780  55.0064 15.00628919901129"}}, "geometry": {"type": "Point", "coordinates": [43.62506637541414, 33.70139901556364]}}]}